ATLAS CENTAUR 2         
1 00694U 63047A   26076.60613966  .00001799  00000+0  20795-3 0  9998
2 00694  30.3522 151.3995 0547505 150.0520 213.2598 14.12096695132748
THOR AGENA D R/B        
1 00733U 64002A   26076.75541492  .00000187  00000+0  84089-4 0  9991
2 00733  99.1220  90.5325 0032114 233.9694 125.8512 14.34024872239451
SL-3 R/B                
1 00877U 64053B   26076.83554679  .00000141  00000+0  51668-4 0  9993
2 00877  65.0771 307.3557 0080045 289.6557  69.5917 14.61374216267983
SL-8 R/B                
1 02802U 67045B   26076.46403718  .00000303  00000+0  91538-4 0  9993
2 02802  74.0134 333.5718 0064522 338.0658  21.7739 14.45629567 90147
SL-8 R/B                
1 03230U 68040B   26076.89525901  .00002647  00000+0  19706-3 0  9990
2 03230  74.0304 296.9272 0023517 117.6432 242.7148 15.03312137 91247
OAO 2                   
1 03597U 68110A   26076.44067349  .00000210  00000+0  61639-4 0  9999
2 03597  34.9924 221.9463 0006231 261.8037  98.1947 14.47312249 20224
ISIS 1                  
1 03669U 69009A   26076.59666509  .00000139  00000+0  82920-4 0  9992
2 03669  88.4528 154.4462 1707885  73.2123 304.8699 11.30416584349425
SERT 2                  
1 04327U 70009A   26076.60049799 -.00000002  00000+0  54291-4 0  9994
2 04327  99.2769  19.2616 0005359 136.5272  36.4171 13.58730607780965
SL-3 R/B                
1 05118U 71028B   26076.53841036  .00033614  00000+0  38512-3 0  9992
2 05118  81.2365  42.3295 0013358 251.1260 108.8546 15.61827938989899
ASTEX 1                 
1 05560U 71089A   26076.61627748  .00000472  00000+0  12011-3 0  9993
2 05560  92.7110 154.3224 0017551  62.4527 297.8460 14.50778379863457
SL-8 R/B                
1 05730U 71119B   26076.58875218  .00007212  00000+0  37717-3 0  9998
2 05730  73.8881 160.9534 0547659 125.9250 239.4020 14.38045910656620
OAO 3 (COPERNICUS)      
1 06153U 72065A   26076.59958256  .00000317  00000+0  69272-4 0  9995
2 06153  35.0049 252.2493 0007147 229.9260 186.3377 14.60004501847357
ATLAS CENTAUR R/B       
1 06155U 72065B   26076.59875274  .00001190  00000+0  16529-3 0  9991
2 06155  35.0007 259.4027 0032897  76.2465 284.1894 14.77709442842434
SL-8 R/B                
1 08459U 75112B   26076.85018304  .00000217  00000+0  79840-4 0  9993
2 08459  74.0636   3.9016 0014444  93.7375 266.5431 14.38208590633047
SL-3 R/B                
1 10114U 77057B   26076.81163022  .00010726  00000+0  22372-3 0  9991
2 10114  97.5774 249.0922 0006185 250.0342 110.0240 15.45728680669580
SEASAT 1                
1 10967U 78064A   26076.45090225  .00000216  00000+0  98810-4 0  9994
2 10967 108.0094 141.7854 0002427 282.5079  77.5795 14.46166669507635
SL-14 R/B               
1 11267U 79011B   26076.49470578  .00000573  00000+0  54023-4 0  9992
2 11267  82.5203  89.1622 0016945  36.2627 323.9737 14.91917902529944
