[{"OBJECT_NAME":"ATLAS CENTAUR 2","OBJECT_ID":"1963-047A","EPOCH":"2026-03-17T14:32:50.466624","MEAN_MOTION":14.12096695,"ECCENTRICITY":0.05475055,"INCLINATION":30.3522,"RA_OF_ASC_NODE":151.3995,"ARG_OF_PERICENTER":150.052,"MEAN_ANOMALY":213.2598,"EPHEMERIS_TYPE":0,"CLASSIFICATION_TYPE":"U","NORAD_CAT_ID":694,"ELEMENT_SET_NO":999,"REV_AT_EPOCH":13274,"BSTAR":0.00020795399,"MEAN_MOTION_DOT":1.799e-5,"MEAN_MOTION_DDOT":0},{"OBJECT_NAME":"THOR AGENA D R/B","OBJECT_ID":"1964-002A","EPOCH":"2026-03-17T18:07:47.849088","MEAN_MOTION":14.34024872,"ECCENTRICITY":0.0032114,"INCLINATION":99.122,"RA_OF_ASC_NODE":90.5325,"ARG_OF_PERICENTER":233.9694,"MEAN_ANOMALY":125.8512,"EPHEMERIS_TYPE":0,"CLASSIFICATION_TYPE":"U","NORAD_CAT_ID":733,"ELEMENT_SET_NO":999,"REV_AT_EPOCH":23945,"BSTAR":8.4089e-5,"MEAN_MOTION_DOT":1.87e-6,"MEAN_MOTION_DDOT":0},{"OBJECT_NAME":"SL-3 R/B","OBJECT_ID":"1964-053B","EPOCH":"2026-03-17T20:03:11.242656","MEAN_MOTION":14.61374216,"ECCENTRICITY":0.0080045,"INCLINATION":65.0771,"RA_OF_ASC_NODE":307.3557,"ARG_OF_PERICENTER":289.6557,"MEAN_ANOMALY":69.5917,"EPHEMERIS_TYPE":0,"CLASSIFICATION_TYPE":"U","NORAD_CAT_ID":877,"ELEMENT_SET_NO":999,"REV_AT_EPOCH":26798,"BSTAR":5.1668e-5,"MEAN_MOTION_DOT":1.41e-6,"MEAN_MOTION_DDOT":0},{"OBJECT_NAME":"SL-8 R/B","OBJECT_ID":"1967-045B","EPOCH":"2026-03-17T11:08:12.812352","MEAN_MOTION":14.45629567,"ECCENTRICITY":0.0064522,"INCLINATION":74.0134,"RA_OF_ASC_NODE":333.5718,"ARG_OF_PERICENTER":338.0658,"MEAN_ANOMALY":21.7739,"EPHEMERIS_TYPE":0,"CLASSIFICATION_TYPE":"U","NORAD_CAT_ID":2802,"ELEMENT_SET_NO":999,"REV_AT_EPOCH":9014,"BSTAR":9.1537932e-5,"MEAN_MOTION_DOT":3.03e-6,"MEAN_MOTION_DDOT":0},{"OBJECT_NAME":"SL-8 R/B","OBJECT_ID":"1968-040B","EPOCH":"2026-03-17T21:29:10.378464","MEAN_MOTION":15.03312137,"ECCENTRICITY":0.0023517,"INCLINATION":74.0304,"RA_OF_ASC_NODE":296.9272,"ARG_OF_PERICENTER":117.6432,"MEAN_ANOMALY":242.7148,"EPHEMERIS_TYPE":0,"CLASSIFICATION_TYPE":"U","NORAD_CAT_ID":3230,"ELEMENT_SET_NO":999,"REV_AT_EPOCH":9124,"BSTAR":0.00019706,"MEAN_MOTION_DOT":2.647e-5,"MEAN_MOTION_DDOT":0},{"OBJECT_NAME":"OAO 2","OBJECT_ID":"1968-110A","EPOCH":"2026-03-17T10:34:34.189536","MEAN_MOTION":14.47312249,"ECCENTRICITY":0.00062311,"INCLINATION":34.9924,"RA_OF_ASC_NODE":221.9463,"ARG_OF_PERICENTER":261.8037,"MEAN_ANOMALY":98.1947,"EPHEMERIS_TYPE":0,"CLASSIFICATION_TYPE":"U","NORAD_CAT_ID":3597,"ELEMENT_SET_NO":999,"REV_AT_EPOCH":2022,"BSTAR":6.1638707e-5,"MEAN_MOTION_DOT":2.1e-6,"MEAN_MOTION_DDOT":0},{"OBJECT_NAME":"ISIS 1","OBJECT_ID":"1969-009A","EPOCH":"2026-03-17T14:19:11.863776","MEAN_MOTION":11.30416584,"ECCENTRICITY":0.17078853,"INCLINATION":88.4528,"RA_OF_ASC_NODE":154.4462,"ARG_OF_PERICENTER":73.2123,"MEAN_ANOMALY":304.8699,"EPHEMERIS_TYPE":0,"CLASSIFICATION_TYPE":"U","NORAD_CAT_ID":3669,"ELEMENT_SET_NO":999,"REV_AT_EPOCH":34942,"BSTAR":8.2920337e-5,"MEAN_MOTION_DOT":1.39e-6,"MEAN_MOTION_DDOT":0},{"OBJECT_NAME":"SERT 2","OBJECT_ID":"1970-009A","EPOCH":"2026-03-17T14:24:43.026336","MEAN_MOTION":13.58730607,"ECCENTRICITY":0.00053595,"INCLINATION":99.2769,"RA_OF_ASC_NODE":19.2616,"ARG_OF_PERICENTER":136.5272,"MEAN_ANOMALY":36.4171,"EPHEMERIS_TYPE":0,"CLASSIFICATION_TYPE":"U","NORAD_CAT_ID":4327,"ELEMENT_SET_NO":999,"REV_AT_EPOCH":78096,"BSTAR":5.4290868e-5,"MEAN_MOTION_DOT":-2.0e-8,"MEAN_MOTION_DDOT":0},{"OBJECT_NAME":"SL-3 R/B","OBJECT_ID":"1971-028B","EPOCH":"2026-03-17T12:55:18.655104","MEAN_MOTION":15.61827938,"ECCENTRICITY":0.00133585,"INCLINATION":81.2365,"RA_OF_ASC_NODE":42.3295,"ARG_OF_PERICENTER":251.126,"MEAN_ANOMALY":108.8546,"EPHEMERIS_TYPE":0,"CLASSIFICATION_TYPE":"U","NORAD_CAT_ID":5118,"ELEMENT_SET_NO":999,"REV_AT_EPOCH":98989,"BSTAR":0.0003851194,"MEAN_MOTION_DOT":0.00033614,"MEAN_MOTION_DDOT":0},{"OBJECT_NAME":"ASTEX 1","OBJECT_ID":"1971-089A","EPOCH":"2026-03-17T14:47:26.374272","MEAN_MOTION":14.50778379,"ECCENTRICITY":0.00175518,"INCLINATION":92.711,"RA_OF_ASC_NODE":154.3224,"ARG_OF_PERICENTER":62.4527,"MEAN_ANOMALY":297.846,"EPHEMERIS_TYPE":0,"CLASSIFICATION_TYPE":"U","NORAD_CAT_ID":5560,"ELEMENT_SET_NO":999,"REV_AT_EPOCH":86345,"BSTAR":0.00012010569,"MEAN_MOTION_DOT":4.72e-6,"MEAN_MOTION_DDOT":0},{"OBJECT_NAME":"SL-8 R/B","OBJECT_ID":"1971-119B","EPOCH":"2026-03-17T14:07:48.188352","MEAN_MOTION":14.3804591,"ECCENTRICITY":0.05476596,"INCLINATION":73.8881,"RA_OF_ASC_NODE":160.9534,"ARG_OF_PERICENTER":125.925,"MEAN_ANOMALY":239.402,"EPHEMERIS_TYPE":0,"CLASSIFICATION_TYPE":"U","NORAD_CAT_ID":5730,"ELEMENT_SET_NO":999,"REV_AT_EPOCH":65662,"BSTAR":0.00037716668,"MEAN_MOTION_DOT":7.212e-5,"MEAN_MOTION_DDOT":0},{"OBJECT_NAME":"OAO 3 (COPERNICUS)","OBJECT_ID":"1972-065A","EPOCH":"2026-03-17T14:23:23.933184","MEAN_MOTION":14.60004501,"ECCENTRICITY":0.00071476,"INCLINATION":35.0049,"RA_OF_ASC_NODE":252.2493,"ARG_OF_PERICENTER":229.926,"MEAN_ANOMALY":186.3377,"EPHEMERIS_TYPE":0,"CLASSIFICATION_TYPE":"U","NORAD_CAT_ID":6153,"ELEMENT_SET_NO":999,"REV_AT_EPOCH":84735,"BSTAR":6.9271983e-5,"MEAN_MOTION_DOT":3.17e-6,"MEAN_MOTION_DDOT":0},{"OBJECT_NAME":"ATLAS CENTAUR R/B","OBJECT_ID":"1972-065B","EPOCH":"2026-03-17T14:22:12.236736","MEAN_MOTION":14.77709442,"ECCENTRICITY":0.00328975,"INCLINATION":35.0007,"RA_OF_ASC_NODE":259.4027,"ARG_OF_PERICENTER":76.2465,"MEAN_ANOMALY":284.1894,"EPHEMERIS_TYPE":0,"CLASSIFICATION_TYPE":"U","NORAD_CAT_ID":6155,"ELEMENT_SET_NO":999,"REV_AT_EPOCH":84243,"BSTAR":0.00016529246,"MEAN_MOTION_DOT":1.19e-5,"MEAN_MOTION_DDOT":0},{"OBJECT_NAME":"SL-8 R/B","OBJECT_ID":"1975-112B","EPOCH":"2026-03-17T20:24:15.814656","MEAN_MOTION":14.3820859,"ECCENTRICITY":0.0014444,"INCLINATION":74.0636,"RA_OF_ASC_NODE":3.9016,"ARG_OF_PERICENTER":93.7375,"MEAN_ANOMALY":266.5431,"EPHEMERIS_TYPE":0,"CLASSIFICATION_TYPE":"U","NORAD_CAT_ID":8459,"ELEMENT_SET_NO":999,"REV_AT_EPOCH":63304,"BSTAR":7.984e-5,"MEAN_MOTION_DOT":2.17e-6,"MEAN_MOTION_DDOT":0},{"OBJECT_NAME":"SL-3 R/B","OBJECT_ID":"1977-057B","EPOCH":"2026-03-17T19:28:44.851008","MEAN_MOTION":15.4572868,"ECCENTRICITY":0.0006185,"INCLINATION":97.5774,"RA_OF_ASC_NODE":249.0922,"ARG_OF_PERICENTER":250.0342,"MEAN_ANOMALY":110.024,"EPHEMERIS_TYPE":0,"CLASSIFICATION_TYPE":"U","NORAD_CAT_ID":10114,"ELEMENT_SET_NO":999,"REV_AT_EPOCH":66958,"BSTAR":0.00022372,"MEAN_MOTION_DOT":0.00010726,"MEAN_MOTION_DDOT":0},{"OBJECT_NAME":"SEASAT 1","OBJECT_ID":"1978-064A","EPOCH":"2026-03-17T10:49:17.954400","MEAN_MOTION":14.46166669,"ECCENTRICITY":0.00024277,"INCLINATION":108.0094,"RA_OF_ASC_NODE":141.7854,"ARG_OF_PERICENTER":282.5079,"MEAN_ANOMALY":77.5795,"EPHEMERIS_TYPE":0,"CLASSIFICATION_TYPE":"U","NORAD_CAT_ID":10967,"ELEMENT_SET_NO":999,"REV_AT_EPOCH":50763,"BSTAR":9.8809756e-5,"MEAN_MOTION_DOT":2.16e-6,"MEAN_MOTION_DDOT":0},{"OBJECT_NAME":"SL-14 R/B","OBJECT_ID":"1979-011B","EPOCH":"2026-03-17T11:52:22.579392","MEAN_MOTION":14.91917902,"ECCENTRICITY":0.00169457,"INCLINATION":82.5203,"RA_OF_ASC_NODE":89.1622,"ARG_OF_PERICENTER":36.2627,"MEAN_ANOMALY":323.9737,"EPHEMERIS_TYPE":0,"CLASSIFICATION_TYPE":"U","NORAD_CAT_ID":11267,"ELEMENT_SET_NO":999,"REV_AT_EPOCH":52994,"BSTAR":5.4023023e-5,"MEAN_MOTION_DOT":5.73e-6,"MEAN_MOTION_DDOT":0}]
